1 44703U 19072A   25355.48710667  .00003865  00000+0  17496-3 0  9997
2 44703  97.2695  58.3896 0013437 310.0389  49.9668 15.21394064340621
